{
    "links": {
        "self": "http://www.neowsapp.com/rest/v1/neo/3292017?api_key=iIulBulltgU6a56xZRHN4H3l9WmuAYTsLGpBGhQ2"
    },
    "id": "3292017",
    "neo_reference_id": "3292017",
    "name": "(2005 TC)",
    "designation": "2005 TC",
    "nasa_jpl_url": "http://ssd.jpl.nasa.gov/sbdb.cgi?sstr=3292017",
    "absolute_magnitude_h": 23.7,
    "estimated_diameter": {
        "kilometers": {
            "estimated_diameter_min": 0.0483676488,
            "estimated_diameter_max": 0.1081533507
        },
        "meters": {
            "estimated_diameter_min": 48.3676488219,
            "estimated_diameter_max": 108.1533506775
        },
        "miles": {
            "estimated_diameter_min": 0.0300542543,
            "estimated_diameter_max": 0.0672033557
        },
        "feet": {
            "estimated_diameter_min": 158.6865169607,
            "estimated_diameter_max": 354.8338390368
        }
    },
    "is_potentially_hazardous_asteroid": false,
    "close_approach_data": [
        {
            "close_approach_date": "2005-09-19",
            "close_approach_date_full": "2005-Sep-19 15:43",
            "epoch_date_close_approach": 1127144580000,
            "relative_velocity": {
                "kilometers_per_second": "13.2435536375",
                "kilometers_per_hour": "47676.793094946",
                "miles_per_hour": "29624.5051316902"
            },
            "miss_distance": {
                "astronomical": "0.098032364",
                "lunar": "38.134589596",
                "kilometers": "14665432.84546468",
                "miles": "9112677.409705384"
            },
            "orbiting_body": "Earth"
        }
    ],
    "orbital_data": {
        "orbit_id": "8",
        "orbit_determination_date": "2017-04-06 09:10:23",
        "first_observation_date": "2005-10-01",
        "last_observation_date": "2005-10-07",
        "data_arc_in_days": 6,
        "observations_used": 34,
        "orbit_uncertainty": "9",
        "minimum_orbit_intersection": ".0977283",
        "jupiter_tisserand_invariant": "2.556",
        "epoch_osculation": "2453646.5",
        "eccentricity": ".7155343085919676",
        "semi_major_axis": "3.652959589461589",
        "inclination": "14.88589063585949",
        "ascending_node_longitude": "9.145951139087174",
        "orbital_period": "2550.150013476456",
        "perihelion_distance": "1.039141675301793",
        "perihelion_argument": "321.9762244982729",
        "aphelion_distance": "6.266777503621386",
        "perihelion_time": "2453612.198635669782",
        "mean_anomaly": "4.842260688046573",
        "mean_motion": ".141168165832423",
        "equinox": "J2000",
        "orbit_class": {
            "orbit_class_type": "AMO",
            "orbit_class_description": "Near-Earth asteroid orbits similar to that of 1221 Amor",
            "orbit_class_range": "1.017 AU < q (perihelion) < 1.3 AU"
        }
    },
    "is_sentry_object": false
}